<?xml version="1.0" ?>
<gpx xmlns="http://www.topografix.com/GPX/1/1">
 <trk>
  <name>Silesia 5K RUN - oficjalna trasa</name>
  <trkseg>
   <trkpt lat="50.2865071" lon="18.97384945"/>
   <trkpt lat="50.28648255" lon="18.97395564"/>
   <trkpt lat="50.28648255" lon="18.97395564"/>
   <trkpt lat="50.28628478" lon="18.97423806"/>
   <trkpt lat="50.28628478" lon="18.97423806"/>
   <trkpt lat="50.2862458" lon="18.97510565"/>
   <trkpt lat="50.2862458" lon="18.97510565"/>
   <trkpt lat="50.28566957" lon="18.98008993"/>
   <trkpt lat="50.28566957" lon="18.98008993"/>
   <trkpt lat="50.28558566" lon="18.98019071"/>
   <trkpt lat="50.28558566" lon="18.98019071"/>
   <trkpt lat="50.28553739" lon="18.98016549"/>
   <trkpt lat="50.28553739" lon="18.98016549"/>
   <trkpt lat="50.28345386" lon="18.97700821"/>
   <trkpt lat="50.28345386" lon="18.97700821"/>
   <trkpt lat="50.28339827" lon="18.97704728"/>
   <trkpt lat="50.28339827" lon="18.97704728"/>
   <trkpt lat="50.28211875" lon="18.97901027"/>
   <trkpt lat="50.28211875" lon="18.97901027"/>
   <trkpt lat="50.28189179" lon="18.97939736"/>
   <trkpt lat="50.28189179" lon="18.97939736"/>
   <trkpt lat="50.28166172" lon="18.98001343"/>
   <trkpt lat="50.28166172" lon="18.98001343"/>
   <trkpt lat="50.28159073" lon="18.98031561"/>
   <trkpt lat="50.28159073" lon="18.98031561"/>
   <trkpt lat="50.28156957" lon="18.98105882"/>
   <trkpt lat="50.28156957" lon="18.98105882"/>
   <trkpt lat="50.28158155" lon="18.98171125"/>
   <trkpt lat="50.28158155" lon="18.98171125"/>
   <trkpt lat="50.28156647" lon="18.98184346"/>
   <trkpt lat="50.28156647" lon="18.98184346"/>
   <trkpt lat="50.28146251" lon="18.98204059"/>
   <trkpt lat="50.28146251" lon="18.98204059"/>
   <trkpt lat="50.27842586" lon="18.98685749"/>
   <trkpt lat="50.27842586" lon="18.98685749"/>
   <trkpt lat="50.27846313" lon="18.98708524"/>
   <trkpt lat="50.27846313" lon="18.98708524"/>
   <trkpt lat="50.2784544" lon="18.98721011"/>
   <trkpt lat="50.2784544" lon="18.98721011"/>
   <trkpt lat="50.27839206" lon="18.98731156"/>
   <trkpt lat="50.27839206" lon="18.98731156"/>
   <trkpt lat="50.27739867" lon="18.98581959"/>
   <trkpt lat="50.27739867" lon="18.98581959"/>
   <trkpt lat="50.27736476" lon="18.98584303"/>
   <trkpt lat="50.27736476" lon="18.98584303"/>
   <trkpt lat="50.2773517" lon="18.98589495"/>
   <trkpt lat="50.2773517" lon="18.98589495"/>
   <trkpt lat="50.27810074" lon="18.98708988"/>
   <trkpt lat="50.27810074" lon="18.98708988"/>
   <trkpt lat="50.27831692" lon="18.98741817"/>
   <trkpt lat="50.27831692" lon="18.98741817"/>
   <trkpt lat="50.279635" lon="18.98947437"/>
   <trkpt lat="50.279635" lon="18.98947437"/>
   <trkpt lat="50.27965124" lon="18.98948876"/>
   <trkpt lat="50.27965124" lon="18.98948876"/>
   <trkpt lat="50.28006657" lon="18.9900272"/>
   <trkpt lat="50.28006657" lon="18.9900272"/>
   <trkpt lat="50.28013628" lon="18.99005191"/>
   <trkpt lat="50.28013628" lon="18.99005191"/>
   <trkpt lat="50.28046259" lon="18.9895635"/>
   <trkpt lat="50.28046259" lon="18.9895635"/>
   <trkpt lat="50.28226807" lon="18.98673811"/>
   <trkpt lat="50.28226807" lon="18.98673811"/>
   <trkpt lat="50.28300893" lon="18.98537814"/>
   <trkpt lat="50.28300893" lon="18.98537814"/>
   <trkpt lat="50.28431477" lon="18.98225268"/>
   <trkpt lat="50.28431477" lon="18.98225268"/>
   <trkpt lat="50.28553265" lon="18.98034772"/>
   <trkpt lat="50.28553265" lon="18.98034772"/>
   <trkpt lat="50.28558789" lon="18.9803326"/>
   <trkpt lat="50.28558789" lon="18.9803326"/>
   <trkpt lat="50.28563504" lon="18.98037071"/>
   <trkpt lat="50.28563504" lon="18.98037071"/>
   <trkpt lat="50.28589691" lon="18.98076933"/>
   <trkpt lat="50.28589691" lon="18.98076933"/>
   <trkpt lat="50.28654254" lon="18.9823722"/>
   <trkpt lat="50.28654254" lon="18.9823722"/>
   <trkpt lat="50.28659581" lon="18.98245971"/>
   <trkpt lat="50.28659581" lon="18.98245971"/>
   <trkpt lat="50.2866473" lon="18.9824483"/>
   <trkpt lat="50.2866473" lon="18.9824483"/>
   <trkpt lat="50.28717028" lon="18.9818387"/>
   <trkpt lat="50.28717028" lon="18.9818387"/>
   <trkpt lat="50.28753281" lon="18.98155838"/>
   <trkpt lat="50.28753281" lon="18.98155838"/>
   <trkpt lat="50.28817064" lon="18.98127656"/>
   <trkpt lat="50.28817064" lon="18.98127656"/>
   <trkpt lat="50.29" lon="18.980974"/>
   <trkpt lat="50.29" lon="18.980974"/>
   <trkpt lat="50.29091544" lon="18.98084146"/>
   <trkpt lat="50.29091544" lon="18.98084146"/>
   <trkpt lat="50.29095699" lon="18.98078344"/>
   <trkpt lat="50.29095699" lon="18.98078344"/>
   <trkpt lat="50.29053826" lon="18.97327085"/>
   <trkpt lat="50.29053826" lon="18.97327085"/>
   <trkpt lat="50.29036606" lon="18.97294383"/>
   <trkpt lat="50.29036606" lon="18.97294383"/>
   <trkpt lat="50.2902242" lon="18.97283762"/>
   <trkpt lat="50.2902242" lon="18.97283762"/>
   <trkpt lat="50.28924595" lon="18.97318468"/>
   <trkpt lat="50.28924595" lon="18.97318468"/>
   <trkpt lat="50.28903208" lon="18.97312946"/>
   <trkpt lat="50.28903208" lon="18.97312946"/>
   <trkpt lat="50.28886275" lon="18.97297519"/>
   <trkpt lat="50.28886275" lon="18.97297519"/>
   <trkpt lat="50.28872122" lon="18.97282883"/>
   <trkpt lat="50.28872122" lon="18.97282883"/>
   <trkpt lat="50.28858474" lon="18.97280509"/>
   <trkpt lat="50.28858474" lon="18.97280509"/>
   <trkpt lat="50.28824102" lon="18.97293167"/>
   <trkpt lat="50.28824102" lon="18.97293167"/>
   <trkpt lat="50.2877684" lon="18.97311363"/>
   <trkpt lat="50.2877684" lon="18.97311363"/>
   <trkpt lat="50.28761929" lon="18.97325604"/>
   <trkpt lat="50.28761929" lon="18.97325604"/>
   <trkpt lat="50.28753841" lon="18.97351711"/>
   <trkpt lat="50.28753841" lon="18.97351711"/>
   <trkpt lat="50.28753841" lon="18.97379796"/>
   <trkpt lat="50.28753841" lon="18.97379796"/>
   <trkpt lat="50.28763319" lon="18.97402343"/>
   <trkpt lat="50.28763319" lon="18.97402343"/>
   <trkpt lat="50.28773176" lon="18.9741243"/>
   <trkpt lat="50.28773176" lon="18.9741243"/>
   <trkpt lat="50.28788327" lon="18.9741747"/>
   <trkpt lat="50.28788327" lon="18.9741747"/>
   <trkpt lat="50.28833088" lon="18.97402262"/>
  </trkseg>
 </trk>
</gpx>
